{"type":"FeatureCollection","features":[{"type":"Feature","geometry":{"type":"LineString","coordinates":[[-111.53367925398651,45.638462900376943],[-111.53313091970115,45.638726767674356],[-111.53181125328041,45.639580300861681],[-111.53074725435103,45.640200567061491],[-111.52850385296395,45.641780501464574],[-111.52789485347404,45.642313501764242],[-111.52749025333215,45.64240116815153],[-111.5271423196232,45.642552301922628],[-111.52669365287272,45.642701967980798],[-111.52638571936605,45.642939101313644],[-111.52600345324272,45.643527501851793],[-111.5259909200125,45.643955368694655],[-111.52510785327117,45.644876568841092],[-111.52476645307428,45.64531956839955],[-111.52454111922573,45.645758568685075],[-111.52450012011096,45.646152702381663]]},"properties":{"permanent_identifier":"52394513","gnis_name":"Madison River","lengthkm":1.15721067,"reachcode":"10020007003886","fcode":55800,"fdate":1646006400000,"resolution":2}}]}